{
  "type": "FeatureCollection",
  "features": [
    {
      "type": "Feature",
      "properties": {
        "norad_id": 66568,
        "name": "STARLINK-35803",
        "group": "last-30-days",
        "lat": 7.065045248727488,
        "lon": -151.0224633511784,
        "alt_km": 430.48991634467984,
        "timestamp": "2025-12-27T03:58:42.929958+00:00",
        "meta_object_name": "STARLINK-35803",
        "meta_object_id": "2025-268M",
        "meta_epoch": "2025-12-26T20:00:01.999008",
        "meta_mean_motion": 15.46348048,
        "meta_eccentricity": 0.000154,
        "meta_inclination": 43.0005,
        "meta_ra_of_asc_node": 38.551,
        "meta_arg_of_pericenter": 284.6246,
        "meta_mean_anomaly": 192.958,
        "meta_ephemeris_type": 0,
        "meta_classification_type": "U",
        "meta_norad_cat_id": 66568,
        "meta_element_set_no": 999,
        "meta_rev_at_epoch": 600,
        "meta_bstar": -0.039035,
        "meta_mean_motion_dot": -0.01754484,
        "meta_mean_motion_ddot": 0,
        "tle_line1": "1 66568U 25268M   25360.83335647 -.01754484  00000+0 -39035-1 0  9994",
        "tle_line2": "2 66568  43.0005  38.5510 0001540 284.6246 192.9580 15.46348048  6002"
      },
      "geometry": {
        "type": "Point",
        "coordinates": [
          -151.0224633511784,
          7.065045248727488
        ]
      }
    },
    {
      "type": "Feature",
      "properties": {
        "norad_id": 66569,
        "name": "STARLINK-35835",
        "group": "last-30-days",
        "lat": -13.339861009234788,
        "lon": -128.71102708996233,
        "alt_km": 433.4786949183517,
        "timestamp": "2025-12-27T03:58:42.929967+00:00",
        "meta_object_name": "STARLINK-35835",
        "meta_object_id": "2025-268N",
        "meta_epoch": "2025-12-26T20:00:01.999008",
        "meta_mean_motion": 15.46188527,
        "meta_eccentricity": 0.0001194,
        "meta_inclination": 43.0007,
        "meta_ra_of_asc_node": 38.4771,
        "meta_arg_of_pericenter": 279.5225,
        "meta_mean_anomaly": 228.5729,
        "meta_ephemeris_type": 0,
        "meta_classification_type": "U",
        "meta_norad_cat_id": 66569,
        "meta_element_set_no": 999,
        "meta_rev_at_epoch": 605,
        "meta_bstar": -0.046813,
        "meta_mean_motion_dot": -0.02089049,
        "meta_mean_motion_ddot": 0,
        "tle_line1": "1 66569U 25268N   25360.83335647 -.02089049  00000+0 -46813-1 0  9996",
        "tle_line2": "2 66569  43.0007  38.4771 0001194 279.5225 228.5729 15.46188527  6058"
      },
      "geometry": {
        "type": "Point",
        "coordinates": [
          -128.71102708996233,
          -13.339861009234788
        ]
      }
    },
    {
      "type": "Feature",
      "properties": {
        "norad_id": 66570,
        "name": "STARLINK-35834",
        "group": "last-30-days",
        "lat": -15.32566670306188,
        "lon": 19.98637959593863,
        "alt_km": 477.02924112984056,
        "timestamp": "2025-12-27T03:58:42.929976+00:00",
        "meta_object_name": "STARLINK-35834",
        "meta_object_id": "2025-268P",
        "meta_epoch": "2025-12-26T20:00:01.999008",
        "meta_mean_motion": 15.31472678,
        "meta_eccentricity": 0.0001314,
        "meta_inclination": 43.001,
        "meta_ra_of_asc_node": 38.9759,
        "meta_arg_of_pericenter": 259.7129,
        "meta_mean_anomaly": 43.5478,
        "meta_ephemeris_type": 0,
        "meta_classification_type": "U",
        "meta_norad_cat_id": 66570,
        "meta_element_set_no": 999,
        "meta_rev_at_epoch": 600,
        "meta_bstar": -0.07302,
        "meta_mean_motion_dot": -0.02045225,
        "meta_mean_motion_ddot": 0,
        "tle_line1": "1 66570U 25268P   25360.83335647 -.02045225  00000+0 -73020-1 0  9996",
        "tle_line2": "2 66570  43.0010  38.9759 0001314 259.7129  43.5478 15.31472678  6000"
      },
      "geometry": {
        "type": "Point",
        "coordinates": [
          19.98637959593863,
          -15.32566670306188
        ]
      }
    },
    {
      "type": "Feature",
      "properties": {
        "norad_id": 66571,
        "name": "STARLINK-35836",
        "group": "last-30-days",
        "lat": -2.3626896337157355,
        "lon": 34.50482068823224,
        "alt_km": 473.2957846147756,
        "timestamp": "2025-12-27T03:58:42.929986+00:00",
        "meta_object_name": "STARLINK-35836",
        "meta_object_id": "2025-268Q",
        "meta_epoch": "2025-12-26T20:00:01.999008",
        "meta_mean_motion": 15.32285392,
        "meta_eccentricity": 0.0001002,
        "meta_inclination": 43.0013,
        "meta_ra_of_asc_node": 38.932,
        "meta_arg_of_pericenter": 261.9101,
        "meta_mean_anomaly": 59.6961,
        "meta_ephemeris_type": 0,
        "meta_classification_type": "U",
        "meta_norad_cat_id": 66571,
        "meta_element_set_no": 999,
        "meta_rev_at_epoch": 605,
        "meta_bstar": -0.068681,
        "meta_mean_motion_dot": -0.01980214,
        "meta_mean_motion_ddot": 0,
        "tle_line1": "1 66571U 25268Q   25360.83335647 -.01980214  00000+0 -68681-1 0  9999",
        "tle_line2": "2 66571  43.0013  38.9320 0001002 261.9101  59.6961 15.32285392  6053"
      },
      "geometry": {
        "type": "Point",
        "coordinates": [
          34.50482068823224,
          -2.3626896337157355
        ]
      }
    },
    {
      "type": "Feature",
      "properties": {
        "norad_id": 66572,
        "name": "STARLINK-35870",
        "group": "last-30-days",
        "lat": 18.24380458030306,
        "lon": 57.68464828698107,
        "alt_km": 466.51395676152606,
        "timestamp": "2025-12-27T03:58:42.929995+00:00",
        "meta_object_name": "STARLINK-35870",
        "meta_object_id": "2025-268R",
        "meta_epoch": "2025-12-26T20:00:01.999008",
        "meta_mean_motion": 15.33716965,
        "meta_eccentricity": 0.0001063,
        "meta_inclination": 43.0011,
        "meta_ra_of_asc_node": 38.8633,
        "meta_arg_of_pericenter": 257.0685,
        "meta_mean_anomaly": 93.599,
        "meta_ephemeris_type": 0,
        "meta_classification_type": "U",
        "meta_norad_cat_id": 66572,
        "meta_element_set_no": 999,
        "meta_rev_at_epoch": 600,
        "meta_bstar": -0.064638,
        "meta_mean_motion_dot": -0.01922172,
        "meta_mean_motion_ddot": 0,
        "tle_line1": "1 66572U 25268R   25360.83335647 -.01922172  00000+0 -64638-1 0  9997",
        "tle_line2": "2 66572  43.0011  38.8633 0001063 257.0685  93.5990 15.33716965  6008"
      },
      "geometry": {
        "type": "Point",
        "coordinates": [
          57.68464828698107,
          18.24380458030306
        ]
      }
    },
    {
      "type": "Feature",
      "properties": {
        "norad_id": 66573,
        "name": "STARLINK-35650",
        "group": "last-30-days",
        "lat": 28.909309192418302,
        "lon": 73.26624841830541,
        "alt_km": 462.75766735514026,
        "timestamp": "2025-12-27T03:58:42.930004+00:00",
        "meta_object_name": "STARLINK-35650",
        "meta_object_id": "2025-268S",
        "meta_epoch": "2025-12-26T20:00:01.999008",
        "meta_mean_motion": 15.34602887,
        "meta_eccentricity": 0.0001459,
        "meta_inclination": 43.0009,
        "meta_ra_of_asc_node": 38.8203,
        "meta_arg_of_pericenter": 261.9624,
        "meta_mean_anomaly": 105.5,
        "meta_ephemeris_type": 0,
        "meta_classification_type": "U",
        "meta_norad_cat_id": 66573,
        "meta_element_set_no": 999,
        "meta_rev_at_epoch": 594,
        "meta_bstar": -0.066578,
        "meta_mean_motion_dot": -0.02058725,
        "meta_mean_motion_ddot": 0,
        "tle_line1": "1 66573U 25268S   25360.83335647 -.02058725  00000+0 -66578-1 0  9998",
        "tle_line2": "2 66573  43.0009  38.8203 0001459 261.9624 105.5000 15.34602887  5941"
      },
      "geometry": {
        "type": "Point",
        "coordinates": [
          73.26624841830541,
          28.909309192418302
        ]
      }
    },
    {
      "type": "Feature",
      "properties": {
        "norad_id": 66574,
        "name": "STARLINK-35812",
        "group": "last-30-days",
        "lat": 37.18052360148293,
        "lon": 91.36497627017978,
        "alt_km": 459.1005930574029,
        "timestamp": "2025-12-27T03:58:42.930014+00:00",
        "meta_object_name": "STARLINK-35812",
        "meta_object_id": "2025-268T",
        "meta_epoch": "2025-12-26T20:00:01.999008",
        "meta_mean_motion": 15.35439378,
        "meta_eccentricity": 0.0001472,
        "meta_inclination": 43.0009,
        "meta_ra_of_asc_node": 38.7803,
        "meta_arg_of_pericenter": 263.4755,
        "meta_mean_anomaly": 120.2333,
        "meta_ephemeris_type": 0,
        "meta_classification_type": "U",
        "meta_norad_cat_id": 66574,
        "meta_element_set_no": 999,
        "meta_rev_at_epoch": 605,
        "meta_bstar": -0.064707,
        "meta_mean_motion_dot": -0.02055865,
        "meta_mean_motion_ddot": 0,
        "tle_line1": "1 66574U 25268T   25360.83335647 -.02055865  00000+0 -64707-1 0  9993",
        "tle_line2": "2 66574  43.0009  38.7803 0001472 263.4755 120.2333 15.35439378  6054"
      },
      "geometry": {
        "type": "Point",
        "coordinates": [
          91.36497627017978,
          37.18052360148293
        ]
      }
    }
  ]
}